NORAD_CAT_ID,OBJECT_NAME,OBJECT_TYPE,EPOCH,MEAN_MOTION,ECCENTRICITY,INCLINATION,RA_OF_ASC_NODE,ARG_OF_PERICENTER,MEAN_ANOMALY,BSTAR,MEAN_MOTION_DOT,MEAN_MOTION_DDOT,TLE_LINE0,TLE_LINE1,TLE_LINE2,SEMIMAJOR_AXIS,PERIOD,APOGEE,PERIGEE,DECAYED
52342.0,STARLINK-3850,PAYLOAD,2022-12-29 08:37:41,15.08825171,0.0003227,53.2174,34.9793,25.0083,335.1065,-0.00012638,-2.299e-05,0.0,0 STARLINK-3850,1 52342U 22045M   22363.35950764 -.00002299  00000-0 -12638-3 0  9991,2 52342  53.2174  34.9793 0003227  25.0083 335.1065 15.08825171 39707,6917.926,95.438,542.023,537.558,0.0
52342.0,STARLINK-3850,PAYLOAD,2022-12-30 08:28:28,15.08832629,0.0002085,53.2209,30.5158,28.0741,332.0363,-2.5367e-05,-6.92e-06,0.0,0 STARLINK-3850,1 52342U 22045M   22364.35310353 -.00000692  00000-0 -25367-4 0  9995,2 52342  53.2209  30.5158 0002085  28.0741 332.0363 15.08832629 39857,6917.903,95.438,541.21,538.326,0.0
52342.0,STARLINK-3850,PAYLOAD,2022-12-31 05:08:28,15.08843387,0.0002986,53.2183,26.6514,27.3074,332.8075,0.00025741,3.811e-05,0.0,0 STARLINK-3850,1 52342U 22045M   22365.21421629  .00003811  00000-0  25741-3 0  9999,2 52342  53.2183  26.6514 0002986  27.3074 332.8075 15.08843387 39986,6917.87,95.437,541.8009999999998,537.669,0.0
52342.0,STARLINK-3850,PAYLOAD,2022-12-31 08:19:15,15.08842494,0.0002991,53.217,26.0559,31.2089,328.908,0.00039504,6.005e-05,0.0,0 STARLINK-3850,1 52342U 22045M   22365.34670428  .00006005  00000-0  39504-3 0  9996,2 52342  53.2170  26.0559 0002991  31.2089 328.9080 15.08842494 40006,6917.873000000001,95.437,541.807,537.669,0.0
52342.0,STARLINK-3850,PAYLOAD,2023-01-01 08:10:02,15.08841933,0.000297,53.2179,21.5967,30.2545,329.8618,7.7782e-05,9.5e-06,0.0,0 STARLINK-3850,1 52342U 22045M   23001.34030374  .00000950  00000-0  77782-4 0  9998,2 52342  53.2179  21.5967 0002970  30.2545 329.8618 15.08841933 40151,6917.874,95.437,541.794,537.685,0.0
52342.0,STARLINK-3850,PAYLOAD,2023-01-01 12:56:11,15.08839375,0.0002979,53.2179,20.7049,26.816,333.2986,1.5303e-05,-4.5e-07,0.0,0 STARLINK-3850,1 52342U 22045M   23001.53902738 -.00000045  00000-0  15303-4 0  9998,2 52342  53.2179  20.7049 0002979  26.8160 333.2986 15.08839375 40183,6917.882,95.438,541.808,537.686,0.0
52342.0,STARLINK-3850,PAYLOAD,2023-01-01 17:42:21,15.08835104,0.0002995,53.2184,19.8124,27.9686,332.1467,-3.548e-05,-8.53e-06,0.0,0 STARLINK-3850,1 52342U 22045M   23001.73775133 -.00000853  00000-0 -35480-4 0  9993,2 52342  53.2184  19.8124 0002995  27.9686 332.1467 15.08835104 40217,6917.895,95.438,541.832,537.688,0.0
52342.0,STARLINK-3850,PAYLOAD,2023-01-02 01:39:17,15.08839587,0.0002918999999999,53.2185,18.3252,28.8289,331.2864,-6.8014e-05,-1.371e-05,0.0,0 STARLINK-3850,1 52342U 22045M   23002.06895009 -.00001371  00000-0 -68014-4 0  9990,2 52342  53.2185  18.3252 0002919  28.8289 331.2864 15.08839587 40264,6917.882,95.438,541.766,537.727,0.0
52342.0,STARLINK-3850,PAYLOAD,2023-01-02 12:46:58,15.08846091,0.0002921999999999,53.2185,16.244,27.786,332.3288,2.2399e-05,6.8e-07,0.0,0 STARLINK-3850,1 52342U 22045M   23002.53262273  .00000068  00000-0  22399-4 0  9999,2 52342  53.2185  16.2440 0002922  27.7860 332.3288 15.08846091 40335,6917.861999999999,95.437,541.748,537.705,0.0
52342.0,STARLINK-3850,PAYLOAD,2023-01-02 17:33:08,15.08839207,0.0002934,53.2186,15.3518,28.0027,332.1123,4.8292e-05,4.8e-06,0.0,0 STARLINK-3850,1 52342U 22045M   23002.73134642  .00000480  00000-0  48292-4 0  9997,2 52342  53.2186  15.3518 0002934  28.0027 332.1123 15.08839207 40364,6917.8830000000025,95.438,541.778,537.7180000000002,0.0
52342.0,STARLINK-3850,PAYLOAD,2023-01-03 12:37:46,15.08831562,0.000294,53.2186,11.7834,29.5697,330.5461,8.1299e-05,1.005e-05,0.0,0 STARLINK-3850,1 52342U 22045M   23003.52623177  .00001005  00000-0  81299-4 0  9999,2 52342  53.2186  11.7834 0002940  29.5697 330.5461 15.08831562 40487,6917.906,95.438,541.805,537.737,0.0
52342.0,STARLINK-3850,PAYLOAD,2023-01-04 12:28:32,15.08845256,0.0002865,53.2185,7.3228,26.1413,333.9723,0.00011343,1.517e-05,0.0,0 STARLINK-3850,1 52342U 22045M   23004.51982231  .00001517  00000-0  11343-3 0  9998,2 52342  53.2185   7.3228 0002865  26.1413 333.9723 15.08845256 40639,6917.864000000001,95.437,541.711,537.747,0.0
52342.0,STARLINK-3850,PAYLOAD,2023-01-04 17:14:41,15.08853741,0.00029,53.2186,6.4311,26.2091,333.9048,0.00013399,1.845e-05,0.0,0 STARLINK-3850,1 52342U 22045M   23004.71853550  .00001845  00000-0  13399-3 0  9998,2 52342  53.2186   6.4311 0002900  26.2091 333.9048 15.08853741 40667,6917.8380000000025,95.437,541.71,537.697,0.0
52342.0,STARLINK-3850,PAYLOAD,2023-01-05 05:57:46,15.08850172,0.0003023,53.2191,4.0538,21.7742,338.3378,0.00013058,1.791e-05,0.0,0 STARLINK-3850,1 52342U 22045M   23005.24845352  .00001791  00000-0  13058-3 0  9990,2 52342  53.2191   4.0538 0003023  21.7742 338.3378 15.08850172 40747,6917.849,95.437,541.806,537.623,0.0
52342.0,STARLINK-3850,PAYLOAD,2023-01-05 07:33:09,15.08846614,0.0002952,53.2181,3.7549,28.362,331.7532,0.00012146,1.645e-05,0.0,0 STARLINK-3850,1 52342U 22045M   23005.31469670  .00001645  00000-0  12146-3 0  9998,2 52342  53.2181   3.7549 0002952  28.3620 331.7532 15.08846614 40758,6917.86,95.437,541.7669999999998,537.683,0.0
52342.0,STARLINK-3850,PAYLOAD,2023-01-06 05:48:34,15.08838764,0.0002808,53.2186,359.5916,28.6633,331.4513,-4.7441e-05,-1.044e-05,0.0,0 STARLINK-3850,1 52342U 22045M   23006.24206481 -.00001044  00000-0 -47441-4 0  9992,2 52342  53.2186 359.5916 0002808  28.6633 331.4513 15.08838764 40898,6917.884,95.438,541.692,537.807,0.0
52342.0,STARLINK-3850,PAYLOAD,2023-01-06 08:59:20,15.08839313,0.0002876,53.2181,358.9971,29.3935,330.7219,-6.3025e-06,-3.89e-06,0.0,0 STARLINK-3850,1 52342U 22045M   23006.37454341 -.00000389  00000-0 -63025-5 0  9994,2 52342  53.2181 358.9971 0002876  29.3935 330.7219 15.08839313 40914,6917.882,95.438,541.737,537.758,0.0
52342.0,STARLINK-3850,PAYLOAD,2023-01-06 23:17:47,15.08852914,0.0002906,53.2183,356.3206,24.0933,336.0195,1.8669e-05,9e-08,0.0,0 STARLINK-3850,1 52342U 22045M   23006.97069135  .00000009  00000-0  18669-4 0  9993,2 52342  53.2183 356.3206 0002906  24.0933 336.0195 15.08852914 41008,6917.840999999999,95.437,541.716,537.696,0.0
52342.0,STARLINK-3850,PAYLOAD,2023-01-07 08:50:06,15.08842933,0.0002914,53.2188,354.5368,26.291,333.8229,6.1183e-05,6.85e-06,0.0,0 STARLINK-3850,1 52342U 22045M   23007.36813609  .00000685  00000-0  61183-4 0  9999,2 52342  53.2188 354.5368 0002914  26.2910 333.8229 15.08842933 41069,6917.871,95.437,541.752,537.721,0.0
52342.0,STARLINK-3850,PAYLOAD,2023-01-08 05:30:09,15.08826723,0.0003101,53.2186,350.6708,37.1537,322.9669,6.065e-05,6.76e-06,0.0,0 STARLINK-3850,1 52342U 22045M   23008.22927436  .00000676  00000-0  60650-4 0  9997,2 52342  53.2186 350.6708 0003101  37.1537 322.9669 15.08826723 41197,6917.920999999999,95.438,541.931,537.641,0.0
52342.0,STARLINK-3850,PAYLOAD,2023-01-08 10:16:18,15.08826482,0.0002964,53.2182,349.7777,29.8481,330.2680000000001,1.8246e-05,2e-08,0.0,0 STARLINK-3850,1 52342U 22045M   23008.42799712  .00000002  00000-0  18246-4 0  9990,2 52342  53.2182 349.7777 0002964  29.8481 330.2680 15.08826482 41221,6917.922,95.438,541.837,537.736,0.0
52342.0,STARLINK-3850,PAYLOAD,2023-01-09 05:20:56,15.08838206,0.000259,53.2168,346.2113,29.815,330.2990000000001,0.00020475,2.972e-05,0.0,0 STARLINK-3850,1 52342U 22045M   23009.22287342  .00002972  00000-0  20475-3 0  9994,2 52342  53.2168 346.2113 0002590  29.8150 330.2990 15.08838206 41343,6917.886,95.438,541.543,537.9590000000002,0.0
52342.0,STARLINK-3850,PAYLOAD,2023-01-09 14:53:15,15.0883504,0.0002905,53.2174,344.4273,27.3393,332.7752,0.00014867,2.078e-05,0.0,0 STARLINK-3850,1 52342U 22045M   23009.62031552  .00002078  00000-0  14867-3 0  9993,2 52342  53.2174 344.4273 0002905  27.3393 332.7752 15.08835040 41402,6917.896,95.438,541.77,537.751,0.0
52342.0,STARLINK-3850,PAYLOAD,2023-01-10 06:47:06,15.08841364,0.0002775,53.218,341.4528,32.2605,327.8557,0.00025943,3.843e-05,0.0,0 STARLINK-3850,1 52342U 22045M   23010.28271720  .00003843  00000-0  25943-3 0  9998,2 52342  53.2180 341.4528 0002775  32.2605 327.8557 15.08841364 41500,6917.876,95.437,541.661,537.822,0.0
52342.0,STARLINK-3850,PAYLOAD,2023-01-10 09:57:52,15.08846998,0.000274,53.2181,340.8583,33.8197,326.297,0.00034325,5.18e-05,0.0,0 STARLINK-3850,1 52342U 22045M   23010.41519537  .00005180  00000-0  34325-3 0  9994,2 52342  53.2181 340.8583 0002740  33.8197 326.2970 15.08846998 41522,6917.859,95.437,541.619,537.8290000000002,0.0
52342.0,STARLINK-3850,PAYLOAD,2023-01-10 14:44:02,15.08830317,0.0002855,53.2169,339.967,39.3579,320.762,-2.4481e-05,-6.78e-06,0.0,0 STARLINK-3850,1 52342U 22045M   23010.61392333 -.00000678  00000-0 -24481-4 0  9991,2 52342  53.2169 339.9670 0002855  39.3579 320.7620 15.08830317 41558,6917.91,95.438,541.75,537.8,0.0
52342.0,STARLINK-3850,PAYLOAD,2023-01-11 05:02:30,15.08854408,0.00026,53.2177,337.2905,36.2368,323.88,0.00064961,0.0001007,0.0,0 STARLINK-3850,1 52342U 22045M   23011.21007680  .00010070  00000-0  64961-3 0  9997,2 52342  53.2177 337.2905 0002600  36.2368 323.8800 15.08854408 41640,6917.835999999998,95.437,541.5,537.903,0.0
52342.0,STARLINK-3850,PAYLOAD,2023-01-11 16:10:12,15.08844106,0.0002281,53.2182,335.2117,45.3577,314.7601,0.00021998,3.215e-05,0.0,0 STARLINK-3850,1 52342U 22045M   23011.67375705  .00003215  00000-0  21998-3 0  9999,2 52342  53.2182 335.2117 0002281  45.3577 314.7601 15.08844106 41717,6917.868,95.437,541.311,538.155,0.0
52342.0,STARLINK-3850,PAYLOAD,2023-01-11 20:56:22,15.08839925,0.0002246,53.2176,334.31699999999995,45.3642,314.7533,9.9686e-05,1.299e-05,0.0,0 STARLINK-3850,1 52342U 22045M   23011.87247947  .00001299  00000-0  99686-4 0  9997,2 52342  53.2176 334.3170 0002246  45.3642 314.7533 15.08839925 41743,6917.880999999999,95.438,541.299,538.192,0.0
